OBJECT_NAME,OBJECT_ID,EPOCH,MEAN_MOTION,ECCENTRICITY,INCLINATION,RA_OF_ASC_NODE,ARG_OF_PERICENTER,MEAN_ANOMALY,EPHEMERIS_TYPE,CLASSIFICATION_TYPE,NORAD_CAT_ID,ELEMENT_SET_NO,REV_AT_EPOCH,BSTAR,MEAN_MOTION_DOT,MEAN_MOTION_DDOT
NUVIEW BRAVO,2024-252D,2026-06-20T09:00:44.673984,1.00271802,.0002084,0.0743,146.5525,337.9215,196.1742,0,U,62457,999,382,0,-.219E-5,0
THURAYA-4,2025-001A,2026-06-19T21:26:38.596128,1.00272730,.0000129,0.0260,67.3649,235.0170,331.6905,0,U,62483,999,420,0,.134E-5,0
SHIJIAN-25 (SJ-25),2025-002A,2026-06-20T10:46:44.814720,1.00261664,.0052012,5.1219,61.1498,173.4030,322.9628,0,U,62485,999,539,0,-.357E-5,0
TJS-14,2025-017A,2026-06-21T12:52:15.057696,1.00276757,.000083,0.7716,295.9577,276.0073,269.2860,0,U,62804,999,531,0,.115E-5,0
SPAINSAT NG I,2025-021A,2026-06-20T00:43:51.585888,1.00271397,.00002234,0.0178,1.7789,177.4851,128.9379,0,U,62852,999,401,0,.146E-5,0
QZS-6 (MICHIBIKI-6),2025-023A,2026-06-20T09:50:21.007968,1.00270060,.0001896,0.0614,73.8005,19.1523,53.7613,0,U,62876,999,498,0,-.237E-5,0
ZHONGXING-10R,2025-036A,2026-06-20T09:55:57.971424,1.00270500,.0003589,0.0045,296.2419,202.1815,29.7251,0,U,63075,999,499,0,-.356E-5,0
TJS-15,2025-045A,2026-06-20T08:08:43.778112,1.00270564,.0004649,0.2944,85.4731,299.0125,100.6355,0,U,63157,999,479,0,-.269E-5,0
TIANLIAN 2-04,2025-062A,2026-06-21T09:44:29.560416,1.00272079,.0031483,4.3626,274.3783,10.3849,211.0218,0,U,63361,999,464,0,-.136E-5,0
TJS-16,2025-064A,2026-06-20T11:05:19.253760,1.00271697,.0003312,1.1077,81.4457,292.6528,221.5121,0,U,63397,999,442,0,-.11E-5,0
TJS-17,2025-073A,2026-06-20T11:47:37.435200,1.00272670,.0002059,1.0737,82.6749,302.0289,225.4498,0,U,63524,999,432,0,-.74E-6,0
TIANLIAN 2-05,2025-084A,2026-06-21T12:52:45.010848,1.00273080,.0003257,4.4391,279.7867,150.3286,53.1495,0,U,63662,999,442,0,.123E-5,0
TJS-19,2025-097A,2026-06-20T11:48:12.150720,1.00275639,.0002894,3.2800,317.5119,246.8383,22.5951,0,U,63924,999,417,0,-.281E-5,0
SXM-10,2025-122A,2026-06-20T08:46:14.646720,1.00272116,.0001887,0.0222,37.6064,326.2448,280.1173,0,U,64290,999,371,0,-.22E-6,0
COSMOS 2589,2025-131A,2026-06-20T06:26:55.413024,1.00271371,.0000241,0.0427,87.6996,16.8448,358.6431,0,U,64467,999,359,0,-.296E-5,0
CHINASAT 9C,2025-132A,2026-06-20T08:07:51.361824,1.00273457,.0003074,0.0131,73.6837,13.1824,35.8296,0,U,64470,999,418,0,-.252E-5,0
MTG-S1,2025-143A,2026-06-20T09:23:49.962336,1.00399694,.0000829,0.6001,339.7327,294.1194,133.2187,0,U,64723,999,345,0,-.5E-7,0
DROR 1,2025-148A,2026-06-20T09:23:20.010048,1.00271314,.0002642,0.0439,72.5487,318.5944,14.2794,0,U,64784,999,332,0,-.39E-6,0
SHIYAN-29,2025-196A,2026-06-20T01:17:59.181216,1.00284739,.00125398,28.8247,18.4992,177.1148,186.8195,0,U,65486,999,291,0,-.285E-5,0
NUSANTARA LIMA (NUSANTARA 5),2025-205A,2026-06-20T08:13:58.274976,1.00270872,.0000107,0.0404,170.4876,328.8729,5.5338,0,U,65588,999,275,0,-.362E-5,0
TJS-20,2025-238A,2026-06-20T00:21:02.127744,1.00267297,.00041897,5.4622,299.5493,158.1883,238.2077,0,U,66142,999,236,0,.19E-6,0
CMS-03 (GSAT-7R),2025-249B,2026-06-20T09:45:36.464256,1.00271464,.0001691,0.0166,80.7193,2.1969,46.0837,0,U,66311,999,238,0,-.81E-6,0
VIASAT-3 F2,2025-261A,2026-06-19T21:03:23.488416,1.00270370,.00000479,0.0363,174.4747,277.7870,52.7047,0,U,66454,999,282,0,-.239E-5,0
SHIJIAN-28 (SJ-28),2025-277A,2026-06-20T11:30:20.865888,1.00276035,.0001125,4.5287,272.0817,39.3140,246.6563,0,U,66549,999,218,0,-.364E-5,0
TJS-22,2025-290A,2026-06-20T20:46:41.821248,1.00274221,.0001975,1.5201,286.6283,330.4567,30.1809,0,U,66990,999,206,0,-.11E-6,0
TJS-23,2025-306A,2026-06-19T14:16:57.988704,1.00266223,.00047257,5.5825,297.4740,175.6001,184.5544,0,U,67226,999,191,0,.1E-6,0
FENGYUN 4C,2025-312A,2026-06-21T04:50:38.753088,1.00270515,.0000316,0.0446,152.2345,41.1577,281.6598,0,U,67246,999,182,0,-.325E-5,0
SHIJIAN-29A (SJ-29A),2025-315A,2026-06-20T09:45:21.486816,1.00270205,.0003269,3.4070,95.0285,23.8001,9.2958,0,U,67302,999,165,0,-.72E-6,0
SHIJIAN-29B (SJ-29B),2025-315C,2026-06-20T02:54:44.075808,1.00270047,.0004057,3.4052,95.0272,34.8918,255.3079,0,U,67403,999,171,0,-.73E-6,0
ELEKTRO-L 5,2026-028A,2026-06-20T01:02:46.276224,1.00272291,.00017499,0.2466,312.6978,180.6855,226.6194,0,U,67756,999,128,0,-.103E-5,0
JAM-E JAM 1,2026-028B,2026-06-19T14:44:55.564800,1.00277035,.00011012,0.2541,303.2318,292.6751,287.1607,0,U,67757,999,114,0,.15E-5,0
